{"type": "FeatureCollection", "features": [ {"type": "Feature", "properties": {"norad_id": 66052, "name": "HRC MONOBLOCK CAMERA", "group": "stations", "lat": -7.148548807125118, "lon": -39.89228173285946, "alt_km": 403.68038576913295, "timestamp": "2025-12-14T03:55:51.571692+00:00", "meta": {"OBJECT_NAME": "HRC MONOBLOCK CAMERA", "OBJECT_ID": "1998-067XR", "EPOCH": "2025-12-13T07:03:37.221984", "MEAN_MOTION": 15.54192892, "ECCENTRICITY": 0.00031753, "INCLINATION": 51.6292, "RA_OF_ASC_NODE": 138.7434, "ARG_OF_PERICENTER": 186.7911, "MEAN_ANOMALY": 173.3037, "EPHEMERIS_TYPE": 0, "CLASSIFICATION_TYPE": "U", "NORAD_CAT_ID": 66052, "ELEMENT_SET_NO": 999, "REV_AT_EPOCH": 892, "BSTAR": 0.00087487655, "MEAN_MOTION_DOT": 0.00058002, "MEAN_MOTION_DDOT": 0}, "tle": {"line1": "1 66052U 98067XR  25347.29418081  .00058002  00000+0  87488-3 0  9995", "line2": "2 66052  51.6292 138.7434 0003175 186.7911 173.3037 15.54192892  8924"}}, "geometry": {"type": "Point", "coordinates": [-39.89228173285946, -7.148548807125118]}}, {"type": "Feature", "properties": {"norad_id": 66174, "name": "HTV-X1", "group": "stations", "lat": 41.74277225499726, "lon": -179.58568335272832, "alt_km": 414.41832487504416, "timestamp": "2025-12-14T03:55:51.571702+00:00", "meta": {"OBJECT_NAME": "HTV-X1", "OBJECT_ID": "2025-241A", "EPOCH": "2025-12-13T02:54:59.414400", "MEAN_MOTION": 15.49559837, "ECCENTRICITY": 0.00032382, "INCLINATION": 51.6303, "RA_OF_ASC_NODE": 140.5889, "ARG_OF_PERICENTER": 241.9684, "MEAN_ANOMALY": 118.0978, "EPHEMERIS_TYPE": 0, "CLASSIFICATION_TYPE": "U", "NORAD_CAT_ID": 66174, "ELEMENT_SET_NO": 999, "REV_AT_EPOCH": 51, "BSTAR": 0.00029450217, "MEAN_MOTION_DOT": 0.0001613, "MEAN_MOTION_DDOT": 0}, "tle": {"line1": "1 66174U 25241A   25347.12152100  .00016130  00000+0  29450-3 0  9994", "line2": "2 66174  51.6303 140.5889 0003238 241.9684 118.0978 15.49559837   515"}}, "geometry": {"type": "Point", "coordinates": [-179.58568335272832, 41.74277225499726]}}, {"type": "Feature", "properties": {"norad_id": 66515, "name": "SZ-21 MODULE", "group": "stations", "lat": 19.162610663512456, "lon": 164.19149840663505, "alt_km": 379.0542504530449, "timestamp": "2025-12-14T03:55:51.571712+00:00", "meta": {"OBJECT_NAME": "SZ-21 MODULE", "OBJECT_ID": "2025-246C", "EPOCH": "2025-12-13T05:48:56.217312", "MEAN_MOTION": 15.62521016, "ECCENTRICITY": 0.00062862, "INCLINATION": 41.4775, "RA_OF_ASC_NODE": 12.9802, "ARG_OF_PERICENTER": 263.0797, "MEAN_ANOMALY": 96.9328, "EPHEMERIS_TYPE": 0, "CLASSIFICATION_TYPE": "U", "NORAD_CAT_ID": 66515, "ELEMENT_SET_NO": 999, "REV_AT_EPOCH": 452, "BSTAR": 0.00043386364, "MEAN_MOTION_DOT": 0.00039667, "MEAN_MOTION_DDOT": 0}, "tle": {"line1": "1 66515U 25246C   25347.24231733  .00039667  00000+0  43386-3 0  9995", "line2": "2 66515  41.4775  12.9802 0006286 263.0797  96.9328 15.62521016  4528"}}, "geometry": {"type": "Point", "coordinates": [164.19149840663505, 19.162610663512456]}}, {"type": "Feature", "properties": {"norad_id": 66645, "name": "SHENZHOU-22", "group": "stations", "lat": -27.870148494061674, "lon": -135.15522780144448, "alt_km": 397.7456098387902, "timestamp": "2025-12-14T03:55:51.571722+00:00", "meta": {"OBJECT_NAME": "SHENZHOU-22", "OBJECT_ID": "2025-272A", "EPOCH": "2025-12-13T06:59:15.159552", "MEAN_MOTION": 15.59202655, "ECCENTRICITY": 0.00082357, "INCLINATION": 41.4684, "RA_OF_ASC_NODE": 13.3607, "ARG_OF_PERICENTER": 35.4193, "MEAN_ANOMALY": 324.7191, "EPHEMERIS_TYPE": 0, "CLASSIFICATION_TYPE": "U", "NORAD_CAT_ID": 66645, "ELEMENT_SET_NO": 999, "REV_AT_EPOCH": 26357, "BSTAR": 0.00037863929, "MEAN_MOTION_DOT": 0.00030374, "MEAN_MOTION_DDOT": 0}, "tle": {"line1": "1 66645U 25272A   25347.29114768  .00030374  00000+0  37864-3 0  9991", "line2": "2 66645  41.4684  13.3607 0008235  35.4193 324.7191 15.59202655263579"}}, "geometry": {"type": "Point", "coordinates": [-135.15522780144448, -27.870148494061674]}}, {"type": "Feature", "properties": {"norad_id": 66664, "name": "SOYUZ-MS 28", "group": "stations", "lat": 41.74277333027735, "lon": -179.58568119074042, "alt_km": 414.41832471987163, "timestamp": "2025-12-14T03:55:51.571732+00:00", "meta": {"OBJECT_NAME": "SOYUZ-MS 28", "OBJECT_ID": "2025-275A", "EPOCH": "2025-12-13T02:54:59.414400", "MEAN_MOTION": 15.49559837, "ECCENTRICITY": 0.00032382, "INCLINATION": 51.6303, "RA_OF_ASC_NODE": 140.5889, "ARG_OF_PERICENTER": 241.9684, "MEAN_ANOMALY": 118.0978, "EPHEMERIS_TYPE": 0, "CLASSIFICATION_TYPE": "U", "NORAD_CAT_ID": 66664, "ELEMENT_SET_NO": 999, "REV_AT_EPOCH": 128, "BSTAR": 0.00029450217, "MEAN_MOTION_DOT": 0.0001613, "MEAN_MOTION_DDOT": 0}, "tle": {"line1": "1 66664U 25275A   25347.12152100  .00016130  00000+0  29450-3 0  9995", "line2": "2 66664  51.6303 140.5889 0003238 241.9684 118.0978 15.49559837  1284"}}, "geometry": {"type": "Point", "coordinates": [-179.58568119074042, 41.74277333027735]}}, {"type": "Feature", "properties": {"norad_id": 66906, "name": "1998-067XS", "group": "stations", "lat": 51.50746048252502, "lon": -129.75432937939033, "alt_km": 408.69118093342877, "timestamp": "2025-12-14T03:55:51.571744+00:00", "meta": {"OBJECT_NAME": "1998-067XS", "OBJECT_ID": "1998-067XS", "EPOCH": "2025-12-12T17:30:10.785600", "MEAN_MOTION": 15.50562979, "ECCENTRICITY": 0.00036025, "INCLINATION": 51.6293, "RA_OF_ASC_NODE": 142.4703, "ARG_OF_PERICENTER": 202.1444, "MEAN_ANOMALY": 157.939, "EPHEMERIS_TYPE": 0, "CLASSIFICATION_TYPE": "U", "NORAD_CAT_ID": 66906, "ELEMENT_SET_NO": 999, "REV_AT_EPOCH": 161, "BSTAR": 0.00063717141, "MEAN_MOTION_DOT": 0.00036816, "MEAN_MOTION_DDOT": 0}, "tle": {"line1": "1 66906U 98067XS  25346.72929150  .00036816  00000+0  63717-3 0  9992", "line2": "2 66906  51.6293 142.4703 0003602 202.1444 157.9390 15.50562979  1615"}}, "geometry": {"type": "Point", "coordinates": [-129.75432937939033, 51.50746048252502]}}, {"type": "Feature", "properties": {"norad_id": 66907, "name": "1998-067XT", "group": "stations", "lat": 46.13247735074027, "lon": -100.20301734143798, "alt_km": 406.97067136422265, "timestamp": "2025-12-14T03:55:51.571754+00:00", "meta": {"OBJECT_NAME": "1998-067XT", "OBJECT_ID": "1998-067XT", "EPOCH": "2025-12-12T17:26:16.026432", "MEAN_MOTION": 15.5143678, "ECCENTRICITY": 0.00044769, "INCLINATION": 51.6298, "RA_OF_ASC_NODE": 142.4529, "ARG_OF_PERICENTER": 226.787, "MEAN_ANOMALY": 133.2746, "EPHEMERIS_TYPE": 0, "CLASSIFICATION_TYPE": "U", "NORAD_CAT_ID": 66907, "ELEMENT_SET_NO": 999, "REV_AT_EPOCH": 161, "BSTAR": 0.0013978666, "MEAN_MOTION_DOT": 0.0008442, "MEAN_MOTION_DDOT": 0}, "tle": {"line1": "1 66907U 98067XT  25346.72657438  .00084420  00000+0  13979-2 0  9998", "line2": "2 66907  51.6298 142.4529 0004476 226.7870 133.2746 15.51436780  1615"}}, "geometry": {"type": "Point", "coordinates": [-100.20301734143798, 46.13247735074027]}}, {"type": "Feature", "properties": {"norad_id": 66908, "name": "1998-067XU", "group": "stations", "lat": 45.02902420033772, "lon": -97.16989786387279, "alt_km": 406.64645559857126, "timestamp": "2025-12-14T03:55:51.571764+00:00", "meta": {"OBJECT_NAME": "1998-067XU", "OBJECT_ID": "1998-067XU", "EPOCH": "2025-12-13T07:20:31.203744", "MEAN_MOTION": 15.51634533, "ECCENTRICITY": 0.00044658, "INCLINATION": 51.6298, "RA_OF_ASC_NODE": 139.5715, "ARG_OF_PERICENTER": 229.458, "MEAN_ANOMALY": 130.6021, "EPHEMERIS_TYPE": 0, "CLASSIFICATION_TYPE": "U", "NORAD_CAT_ID": 66908, "ELEMENT_SET_NO": 999, "REV_AT_EPOCH": 170, "BSTAR": 0.0017363682, "MEAN_MOTION_DOT": 0.00106014, "MEAN_MOTION_DDOT": 0}, "tle": {"line1": "1 66908U 98067XU  25347.30591671  .00106014  00000+0  17364-2 0  9996", "line2": "2 66908  51.6298 139.5715 0004465 229.4580 130.6021 15.51634533  1709"}}, "geometry": {"type": "Point", "coordinates": [-97.16989786387279, 45.02902420033772]}}, {"type": "Feature", "properties": {"norad_id": 66909, "name": "SILVERSAT", "group": "stations", "lat": 43.76841491717583, "lon": -94.07217256144939, "alt_km": 406.5025029756507, "timestamp": "2025-12-14T03:55:51.571774+00:00", "meta": {"OBJECT_NAME": "SILVERSAT", "OBJECT_ID": "1998-067XV", "EPOCH": "2025-12-12T22:03:29.727648", "MEAN_MOTION": 15.51661311, "ECCENTRICITY": 0.00044499, "INCLINATION": 51.6297, "RA_OF_ASC_NODE": 141.4878, "ARG_OF_PERICENTER": 228.6613, "MEAN_ANOMALY": 131.3994, "EPHEMERIS_TYPE": 0, "CLASSIFICATION_TYPE": "U", "NORAD_CAT_ID": 66909, "ELEMENT_SET_NO": 999, "REV_AT_EPOCH": 164, "BSTAR": 0.0015570359, "MEAN_MOTION_DOT": 0.00094974, "MEAN_MOTION_DDOT": 0}, "tle": {"line1": "1 66909U 98067XV  25346.91909407  .00094974  00000+0  15570-2 0  9991", "line2": "2 66909  51.6297 141.4878 0004449 228.6613 131.3994 15.51661311  1645"}}, "geometry": {"type": "Point", "coordinates": [-94.07217256144939, 43.76841491717583]}}, {"type": "Feature", "properties": {"norad_id": 66910, "name": "1998-067XW", "group": "stations", "lat": 38.79647113695979, "lon": -84.28245179760727, "alt_km": 405.5751009851947, "timestamp": "2025-12-14T03:55:51.571783+00:00", "meta": {"OBJECT_NAME": "1998-067XW", "OBJECT_ID": "1998-067XW", "EPOCH": "2025-12-12T20:28:35.609952", "MEAN_MOTION": 15.51770354, "ECCENTRICITY": 0.00052525, "INCLINATION": 51.6298, "RA_OF_ASC_NODE": 141.7982, "ARG_OF_PERICENTER": 209.4111, "MEAN_ANOMALY": 150.6584, "EPHEMERIS_TYPE": 0, "CLASSIFICATION_TYPE": "U", "NORAD_CAT_ID": 66910, "ELEMENT_SET_NO": 999, "REV_AT_EPOCH": 163, "BSTAR": 0.001333891, "MEAN_MOTION_DOT": 0.00081487, "MEAN_MOTION_DDOT": 0}, "tle": {"line1": "1 66910U 98067XW  25346.85318993  .00081487  00000+0  13339-2 0  9996", "line2": "2 66910  51.6298 141.7982 0005252 209.4111 150.6584 15.51770354  1636"}}, "geometry": {"type": "Point", "coordinates": [-84.28245179760727, 38.79647113695979]}}]}